LITUANICASAT-2          
1 42768U 17036D   17307.46273111  .00003056  00000-0  14324-3 0  9998
2 42768  97.4348   5.4065 0017479 133.2125 227.0573 15.20314224 20258
LEMUR-2-SHAINAJOHL      
1 42771U 17036G   17307.45236340  .00002323  00000-0  10967-3 0  9999
2 42771  97.4344   5.4196 0016616 132.2049 228.0600 15.20320484 20199
LEMUR-2-XUENITERENCE    
1 42772U 17036H   17307.44828535  .00002360  00000-0  11126-3 0  9991
2 42772  97.4344   5.4241 0016276 131.8828 228.3799 15.20357388 20198
LEMUR-2-LUCYBRYCE       
1 42773U 17036J   17307.44022508  .00002841  00000-0  13265-3 0  9998
2 42773  97.4346   5.4361 0016090 131.6784 228.5831 15.20531368 20198
LEMUR-2-KUNGFOO         
1 42774U 17036K   17307.44244683  .00002303  00000-0  10847-3 0  9995
2 42774  97.4346   5.4366 0016037 131.5661 228.6952 15.20428494 20187
AALTO-1                 
1 42775U 17036L   17307.31014185  .00001192  00000-0  57898-4 0  9997
2 42775  97.4339   5.3032 0015657 130.7905 229.4691 15.20284689 20172
URSA MAIOR              
1 42776U 17036M   17307.10907477  .00001294  00000-0  62508-4 0  9997
2 42776  97.4343   5.1181 0015495 131.7132 228.5431 15.20337681 20144
COMPASS 2               
1 42777U 17036N   17307.47243430  .00002506  00000-0  11631-3 0  9997
2 42777  97.4358   5.5666 0014523 134.4355 225.8071 15.20870317 20194
LEMUR-2-LYNSEY-SYMO     
1 42779U 17036Q   17307.45295639  .00002868  00000-0  13164-3 0  9999
2 42779  97.4350   5.5779 0013982 140.1715 220.0550 15.21142743 20189
LEMUR-2-LISASAURUS      
1 42780U 17036R   17307.45435764  .00002360  00000-0  10915-3 0  9994
2 42780  97.4347   5.5711 0013861 139.9639 220.2621 15.21055153 20190
LEMUR-2-SAM-AMELIA      
1 42781U 17036S   17307.44905984  .00002822  00000-0  12946-3 0  9999
2 42781  97.4346   5.5768 0013825 140.6685 219.5558 15.21177923 20181
LEMUR-2-MCPEAKE         
1 42782U 17036T   17307.44645079  .00002790  00000-0  12788-3 0  9994
2 42782  97.4349   5.5838 0013670 140.1442 220.0800 15.21212144 20189
DIAMOND RED             
1 42783U 17036U   17307.12484220  .00001469  00000-0  69382-4 0  9994
2 42783  97.4341   5.2445 0013627 142.6424 217.5762 15.20931731 20145
PEGASUS                 
1 42784U 17036V   17307.38373011  .00001765  00000-0  82531-4 0  9998
2 42784  97.4342   5.5120 0013596 142.1577 218.0617 15.21026011 20185
DIAMOND GREEN           
1 42785U 17036W   17307.38705831  .00001638  00000-0  77027-4 0  9991
2 42785  97.4343   5.5094 0013564 142.2904 217.9285 15.20929947 20174
DIAMOND BLUE            
1 42786U 17036X   17307.12206369  .00001502  00000-0  70942-4 0  9995
2 42786  97.4343   5.2511 0013344 143.3842 216.8308 15.20906128 20210
NUDTSAT                 
1 42787U 17036Y   17307.43402974  .00002656  00000-0  12149-3 0  9995
2 42787  97.4346   5.5978 0013253 142.1645 218.0524 15.21329575 20031
SUCHAI                  
1 42788U 17036Z   17307.43930501  .00002154  00000-0  99537-4 0  9998
2 42788  97.4344   5.5890 0013273 141.9123 218.3054 15.21191070 20266
SKCUBE                  
1 42789U 17036AA  17307.43657541  .00002025  00000-0  93740-4 0  9996
2 42789  97.4343   5.5911 0013103 141.7961 218.4206 15.21202071 20185
VZLUSAT-1               
1 42790U 17036AB  17307.36196993  .00002602  00000-0  11900-3 0  9997
2 42790  97.4342   5.5345 0012764 142.7337 217.4787 15.21368213 20170
ROBUSTA-1B              
1 42792U 17036AD  17307.42548834  .00002001  00000-0  92340-4 0  9992
2 42792  97.4341   5.6010 0012618 142.8752 217.3358 15.21335682 20190
CICERO 6                
1 42793U 17036AE  17307.21493224  .00001350  00000-0  63184-4 0  9992
2 42793  97.4336   5.4211 0011659 143.7363 216.4665 15.21401825 20237
D-SAT                   
1 42794U 17036AF  17307.38530494  .00000418  00000-0  42413-4 0  9998
2 42794  97.6260   5.1570 0126343 313.7180  45.3628 14.90688113 20087
TOKI                    
1 42820U 98067MU  17307.57279384  .00022336  00000-0  28583-3 0  9994
2 42820  51.6385  61.2595 0003004  29.6212 330.4950 15.59116919 18586
GHANASAT-1              
1 42821U 98067MV  17307.57901541  .00021862  00000-0  28156-3 0  9991
2 42821  51.6384  61.3012 0002991  34.4247 325.6939 15.58961893 18566
MAZAALAI (NUMSAT-1)     
1 42822U 98067MW  17307.57919312  .00022326  00000-0  28696-3 0  9992
2 42822  51.6386  61.3032 0002981  35.9324 324.1869 15.59001214 18561
BRAC ONNESHA            
1 42823U 98067MX  17307.58118513  .00022492  00000-0  28885-3 0  9992
2 42823  51.6390  61.3202 0005916  59.7472 300.4105 15.59006612 18562
NIGERIAEDUSAT-1         
1 42824U 98067MY  17307.58622477  .00022655  00000-0  29183-3 0  9995
2 42824  51.6399  61.3557 0005770  60.3824 299.7743 15.58921590 18560
LEMUR-2-GREENBERG       
1 42837U 17042N   17307.54030942  .00000907  00000-0  96706-4 0  9991
2 42837  97.6076 213.2538 0011975 224.9467 135.0783 14.91165016 16729
LEMUR-2-ANDIS           
1 42838U 17042P   17307.53871489  .00000900  00000-0  95994-4 0  9991
2 42838  97.6076 213.2552 0012069 224.8411 135.1833 14.91182426 16720
LEMUR-2-MONSON          
1 42839U 17042Q   17307.53211748  .00000474  00000-0  53048-4 0  9998
2 42839  97.6075 213.2629 0011870 223.6557 136.3724 14.91238184 16727
LEMUR-2-FURIAUS         
1 42840U 17042R   17307.52866262  .00000740  00000-0  79571-4 0  9991
2 42840  97.6075 213.2664 0011850 224.3938 135.6331 14.91320096 16716
LEMUR-2-PETERG          
1 42841U 17042S   17307.58587679  .00000785  00000-0  83865-4 0  9990
2 42841  97.6075 213.3450 0011560 222.4867 137.5458 14.91451264 16734
LEMUR-2-DEMBITZ         
1 42842U 17042T   17307.58421363  .00000762  00000-0  81553-4 0  9995
2 42842  97.6073 213.3451 0011554 223.0642 136.9673 14.91472508 16731
LEMUR-2-ZACHARY         
1 42845U 17042W   17307.56800053  .00000995  00000-0  10427-3 0  9992
2 42845  97.6023 213.2917 0011869 228.5845 131.4355 14.91668439 16725
FLOCK 2K-03             
1 42850U 17042AB  17307.53882499  .00009150  00000-0  27669-3 0  9997
2 42850  96.9950 210.5462 0010197 202.4799 157.5999 15.34366554 17005
FLOCK 2K-04             
1 42851U 17042AC  17307.21618452  .00008609  00000-0  26074-3 0  9996
2 42851  96.9951 210.2359 0009888 205.1952 154.8811 15.34339082 16957
FLOCK 2K-01             
1 42852U 17042AD  17307.54081486  .00013018  00000-0  39255-3 0  9999
2 42852  96.9948 210.5452 0009808 202.1924 157.8896 15.34371890 17005
FLOCK 2K-02             
1 42853U 17042AE  17307.50092145  .00002333  00000-0  75132-4 0  9993
2 42853  96.9954 210.4587 0010818 202.8112 157.2652 15.33090199 16990
FLOCK 2K-47             
1 42854U 17042AF  17307.53717164  .00009372  00000-0  28307-3 0  9993
2 42854  96.9948 210.5480 0009629 200.4891 159.5968 15.34402542 17001
FLOCK 2K-48             
1 42855U 17042AG  17307.20968330  .00006042  00000-0  18335-3 0  9992
2 42855  96.9950 210.2448 0009591 202.4007 157.6819 15.34399259 16952
FLOCK 2K-45             
1 42856U 17042AH  17307.27331259  .00007795  00000-0  23606-3 0  9997
2 42856  96.9947 210.3059 0009711 201.1884 158.8959 15.34375642 16960
FLOCK 2K-24             
1 42857U 17042AJ  17307.40249954  .00004564  00000-0  13894-3 0  9992
2 42857  96.9955 210.4305 0009806 198.4934 161.5955 15.34424810 16985
FLOCK 2K-46             
1 42858U 17042AK  17307.53177815  .00010499  00000-0  31654-3 0  9991
2 42858  96.9953 210.5610 0009978 199.4038 160.6827 15.34426833 17009
FLOCK 2K-23             
1 42859U 17042AL  17307.20436656  .00006652  00000-0  20136-3 0  9996
2 42859  96.9952 210.2515 0009989 201.3424 158.7405 15.34437396 16953
FLOCK 2K-21             
1 42860U 17042AM  17307.52864677  .00012993  00000-0  39093-3 0  9998
2 42860  96.9951 210.5622 0010064 198.9489 161.1382 15.34440179 17006
FLOCK 2K-22             
1 42861U 17042AN  17307.54089965  .00013302  00000-0  40329-3 0  9999
2 42861  96.9954 210.5501 0009968 197.2017 162.8891 15.34193546 17002
FLOCK 2K-07             
1 42862U 17042AP  17307.52681447  .00007250  00000-0  21973-3 0  9990
2 42862  96.9952 210.5656 0010277 199.8654 160.2192 15.34366261 17015
FLOCK 2K-08             
1 42863U 17042AQ  17307.52404986  .00002646  00000-0  81525-4 0  9996
2 42863  96.9947 210.5644 0010193 199.8117 160.2732 15.34406227 17004
FLOCK 2K-05             
1 42864U 17042AR  17307.19992029  .00012861  00000-0  38689-3 0  9992
2 42864  96.9953 210.2566 0010292 199.9632 160.1211 15.34445596 16951
FLOCK 2K-40             
1 42865U 17042AS  17307.19679775  .00012686  00000-0  38202-3 0  9999
2 42865  96.9953 210.2613 0010156 201.1858 158.8967 15.34415646 16955
FLOCK 2K-39             
1 42866U 17042AT  17307.19560640  .00005717  00000-0  17334-3 0  9990
2 42866  96.9949 210.2601 0010241 200.2590 159.8249 15.34444174 16958
FLOCK 2K-37             
1 42867U 17042AU  17307.51995752  .00009695  00000-0  29229-3 0  9998
2 42867  96.9952 210.5729 0010264 199.9013 160.1832 15.34446231 17002
FLOCK 2K-38             
1 42868U 17042AV  17307.51700086  .00006731  00000-0  20375-3 0  9994
2 42868  96.9950 210.5767 0010229 199.8879 160.1967 15.34432719 17008
FLOCK 2K-31             
1 42869U 17042AW  17307.51522868  .00008951  00000-0  27031-3 0  9997
2 42869  96.9951 210.5775 0010311 198.4065 161.6808 15.34416686 17008
FLOCK 2K-32             
1 42870U 17042AX  17307.44896404  .00002671  00000-0  82233-4 0  9990
2 42870  96.9948 210.5177 0010325 199.5442 160.5407 15.34418796 16992
FLOCK 2K-29             
1 42871U 17042AY  17307.51267420  .00004111  00000-0  12518-3 0  9998
2 42871  96.9951 210.5836 0010528 198.3514 161.7352 15.34468405 17008
FLOCK 2K-30             
1 42872U 17042AZ  17307.51163189  .00003240  00000-0  98967-4 0  9991
2 42872  96.9949 210.5825 0010437 199.3176 160.7673 15.34516072 16994
FLOCK 2K-44             
1 42873U 17042BA  17307.50973270  .00012173  00000-0  36602-3 0  9993
2 42873  96.9954 210.5875 0011791 187.7897 172.3166 15.34456366 17009
